ORBCOMM FM105           
1 41181U 15081C   26095.56040567  .00000346  00000+0  14156-3 0  9997
2 41181  47.0015 288.3610 0001923 204.2688 155.8102 14.45517398543042
ORBCOMM FM110           
1 41182U 15081D   26095.64333895  .00001346  00000+0  32139-3 0  9998
2 41182  47.0038 344.4248 0002410  96.6359 263.4801 14.58794157547038
ORBCOMM FM118           
1 41183U 15081E   26095.40402964  .00001339  00000+0  31990-3 0  9993
2 41183  47.0058 345.8772 0002715  49.5173 310.5949 14.58790442547105
ORBCOMM FM112           
1 41184U 15081F   26095.81785860  .00000946  00000+0  23677-3 0  9994
2 41184  46.9985 252.4079 0002447 233.3280 126.7381 14.58787540548383
ORBCOMM FM113           
1 41185U 15081G   26095.86364847  .00000823  00000+0  21061-3 0  9997
2 41185  46.9999 252.5641 0002103 241.3673 118.7002 14.58779379548370
ORBCOMM FM115           
1 41186U 15081H   26095.24239673  .00000963  00000+0  21936-3 0  9994
2 41186  46.9977  89.8247 0001734 304.4076  55.6647 14.63173049550530
ORBCOMM FM108           
1 41187U 15081J   26095.62087752  .00001181  00000+0  28641-3 0  9999
2 41187  47.0041 165.2626 0003491 234.1961 125.8601 14.58794712549481
ORBCOMM FM117           
1 41188U 15081K   26095.44929219  .00001122  00000+0  27406-3 0  9996
2 41188  47.0005 164.7299 0003949 237.2423 122.8082 14.58789528549509
ORBCOMM FM116           
1 41189U 15081L   26095.49865403  .00000965  00000+0  24065-3 0  9998
2 41189  47.0017 254.2842 0001130 102.8513 257.2499 14.58783270548321
